[
  {
    "CCSDS_OMM_VERS": "2.0",
    "COMMENT": "GENERATED VIA SPACE-TRACK.ORG API",
    "CREATION_DATE": "2025-03-19T17:43:14",
    "ORIGINATOR": "18 SPCS",
    "OBJECT_NAME": "NAVSTAR 74 (USA 262)",
    "OBJECT_ID": "2015-033A",
    "CENTER_NAME": "EARTH",
    "REF_FRAME": "TEME",
    "TIME_SYSTEM": "UTC",
    "MEAN_ELEMENT_THEORY": "SGP4",
    "EPOCH": "2025-03-19T12:29:53.116224",
    "MEAN_MOTION": "2.00552887",
    "ECCENTRICITY": "0.01045840",
    "INCLINATION": "54.3553",
    "RA_OF_ASC_NODE": "285.7900",
    "ARG_OF_PERICENTER": "24.0164",
    "MEAN_ANOMALY": "336.4922",
    "EPHEMERIS_TYPE": "0",
    "CLASSIFICATION_TYPE": "U",
    "NORAD_CAT_ID": "40730",
    "ELEMENT_SET_NO": "999",
    "REV_AT_EPOCH": "7087",
    "BSTAR": "0.00000000000000",
    "MEAN_MOTION_DOT": "0.00000000",
    "MEAN_MOTION_DDOT": "0.0000000000000",
    "SEMIMAJOR_AXIS": "26561.294",
    "PERIOD": "718.015",
    "APOAPSIS": "20460.948",
    "PERIAPSIS": "19905.370",
    "OBJECT_TYPE": "PAYLOAD",
    "RCS_SIZE": "LARGE",
    "COUNTRY_CODE": "US",
    "LAUNCH_DATE": "2015-07-15",
    "SITE": "AFETR",
    "DECAY_DATE": null,
    "FILE": "4674121",
    "GP_ID": "283499255",
    "TLE_LINE0": "0 NAVSTAR 74 (USA 262)",
    "TLE_LINE1": "1 40730U 15033A   25078.52075366  .00000000  00000-0  00000-0 0  9992",
    "TLE_LINE2": "2 40730  54.3553 285.7900 0104584  24.0164 336.4922  2.00552887 70879"
  },
  {
    "CCSDS_OMM_VERS": "2.0",
    "COMMENT": "GENERATED VIA SPACE-TRACK.ORG API",
    "CREATION_DATE": "2025-03-20T06:56:18",
    "ORIGINATOR": "18 SPCS",
    "OBJECT_NAME": "NAVSTAR 77 (USA 289)",
    "OBJECT_ID": "2018-109A",
    "CENTER_NAME": "EARTH",
    "REF_FRAME": "TEME",
    "TIME_SYSTEM": "UTC",
    "MEAN_ELEMENT_THEORY": "SGP4",
    "EPOCH": "2025-03-19T13:10:33.896352",
    "MEAN_MOTION": "2.00566539",
    "ECCENTRICITY": "0.00332060",
    "INCLINATION": "55.4187",
    "RA_OF_ASC_NODE": "110.1415",
    "ARG_OF_PERICENTER": "197.3870",
    "MEAN_ANOMALY": "335.0746",
    "EPHEMERIS_TYPE": "0",
    "CLASSIFICATION_TYPE": "U",
    "NORAD_CAT_ID": "43873",
    "ELEMENT_SET_NO": "999",
    "REV_AT_EPOCH": "4590",
    "BSTAR": "0.00000000000000",
    "MEAN_MOTION_DOT": "0.00000019",
    "MEAN_MOTION_DDOT": "0.0000000000000",
    "SEMIMAJOR_AXIS": "26560.089",
    "PERIOD": "717.966",
    "APOAPSIS": "20270.149",
    "PERIAPSIS": "20093.758",
    "OBJECT_TYPE": "PAYLOAD",
    "RCS_SIZE": "LARGE",
    "COUNTRY_CODE": "US",
    "LAUNCH_DATE": "2018-12-23",
    "SITE": "AFETR",
    "DECAY_DATE": null,
    "FILE": "4674645",
    "GP_ID": "283555907",
    "TLE_LINE0": "0 NAVSTAR 77 (USA 289)",
    "TLE_LINE1": "1 43873U 18109A   25078.54900343  .00000019  00000-0  00000+0 0  9993",
    "TLE_LINE2": "2 43873  55.4187 110.1415 0033206 197.3870 335.0746  2.00566539 45901"
  },
  {
    "CCSDS_OMM_VERS": "2.0",
    "COMMENT": "GENERATED VIA SPACE-TRACK.ORG API",
    "CREATION_DATE": "2025-03-19T17:43:14",
    "ORIGINATOR": "18 SPCS",
    "OBJECT_NAME": "NAVSTAR 80 (USA 309)",
    "OBJECT_ID": "2020-078A",
    "CENTER_NAME": "EARTH",
    "REF_FRAME": "TEME",
    "TIME_SYSTEM": "UTC",
    "MEAN_ELEMENT_THEORY": "SGP4",
    "EPOCH": "2025-03-19T13:43:44.391648",
    "MEAN_MOTION": "2.00558805",
    "ECCENTRICITY": "0.00555260",
    "INCLINATION": "54.0879",
    "RA_OF_ASC_NODE": "229.2213",
    "ARG_OF_PERICENTER": "199.2164",
    "MEAN_ANOMALY": "165.0702",
    "EPHEMERIS_TYPE": "0",
    "CLASSIFICATION_TYPE": "U",
    "NORAD_CAT_ID": "46826",
    "ELEMENT_SET_NO": "999",
    "REV_AT_EPOCH": "3239",
    "BSTAR": "0.00000000000000",
    "MEAN_MOTION_DOT": "0.00000039",
    "MEAN_MOTION_DDOT": "0.0000000000000",
    "SEMIMAJOR_AXIS": "26560.772",
    "PERIOD": "717.994",
    "APOAPSIS": "20330.118",
    "PERIAPSIS": "20035.155",
    "OBJECT_TYPE": "PAYLOAD",
    "RCS_SIZE": "LARGE",
    "COUNTRY_CODE": "US",
    "LAUNCH_DATE": "2020-11-05",
    "SITE": "AFETR",
    "DECAY_DATE": null,
    "FILE": "4674121",
    "GP_ID": "283502532",
    "TLE_LINE0": "0 NAVSTAR 80 (USA 309)",
    "TLE_LINE1": "1 46826U 20078A   25078.57204157  .00000039  00000-0  00000-0 0  9998",
    "TLE_LINE2": "2 46826  54.0879 229.2213 0055526 199.2164 165.0702  2.00558805 32398"
  },
  {
    "CCSDS_OMM_VERS": "2.0",
    "COMMENT": "GENERATED VIA SPACE-TRACK.ORG API",
    "CREATION_DATE": "2025-03-20T19:29:49",
    "ORIGINATOR": "18 SPCS",
    "OBJECT_NAME": "NAVSTAR 67 (USA 239)",
    "OBJECT_ID": "2012-053A",
    "CENTER_NAME": "EARTH",
    "REF_FRAME": "TEME",
    "TIME_SYSTEM": "UTC",
    "MEAN_ELEMENT_THEORY": "SGP4",
    "EPOCH": "2025-03-19T14:48:50.135616",
    "MEAN_MOTION": "2.00561891",
    "ECCENTRICITY": "0.01633400",
    "INCLINATION": "53.5271",
    "RA_OF_ASC_NODE": "162.2107",
    "ARG_OF_PERICENTER": "59.9318",
    "MEAN_ANOMALY": "301.7302",
    "EPHEMERIS_TYPE": "0",
    "CLASSIFICATION_TYPE": "U",
    "NORAD_CAT_ID": "38833",
    "ELEMENT_SET_NO": "999",
    "REV_AT_EPOCH": "9032",
    "BSTAR": "0.00000000000000",
    "MEAN_MOTION_DOT": "0.00000008",
    "MEAN_MOTION_DDOT": "0.0000000000000",
    "SEMIMAJOR_AXIS": "26560.499",
    "PERIOD": "717.983",
    "APOAPSIS": "20616.203",
    "PERIAPSIS": "19748.525",
    "OBJECT_TYPE": "PAYLOAD",
    "RCS_SIZE": "LARGE",
    "COUNTRY_CODE": "US",
    "LAUNCH_DATE": "2012-10-04",
    "SITE": "AFETR",
    "DECAY_DATE": null,
    "FILE": "4675094",
    "GP_ID": "283580208",
    "TLE_LINE0": "0 NAVSTAR 67 (USA 239)",
    "TLE_LINE1": "1 38833U 12053A   25078.61724694  .00000008  00000-0  00000-0 0  9995",
    "TLE_LINE2": "2 38833  53.5271 162.2107 0163340  59.9318 301.7302  2.00561891 90323"
  },
  {
    "CCSDS_OMM_VERS": "2.0",
    "COMMENT": "GENERATED VIA SPACE-TRACK.ORG API",
    "CREATION_DATE": "2025-03-20T03:31:02",
    "ORIGINATOR": "18 SPCS",
    "OBJECT_NAME": "NAVSTAR 56 (USA 180)",
    "OBJECT_ID": "2004-045A",
    "CENTER_NAME": "EARTH",
    "REF_FRAME": "TEME",
    "TIME_SYSTEM": "UTC",
    "MEAN_ELEMENT_THEORY": "SGP4",
    "EPOCH": "2025-03-19T20:30:16.798176",
    "MEAN_MOTION": "2.00657878",
    "ECCENTRICITY": "0.01639460",
    "INCLINATION": "55.3541",
    "RA_OF_ASC_NODE": "343.1645",
    "ARG_OF_PERICENTER": "301.3587",
    "MEAN_ANOMALY": "239.4145",
    "EPHEMERIS_TYPE": "0",
    "CLASSIFICATION_TYPE": "U",
    "NORAD_CAT_ID": "28474",
    "ELEMENT_SET_NO": "999",
    "REV_AT_EPOCH": "14931",
    "BSTAR": "0.00000000000000",
    "MEAN_MOTION_DOT": "-0.00000087",
    "MEAN_MOTION_DDOT": "0.0000000000000",
    "SEMIMAJOR_AXIS": "26552.028",
    "PERIOD": "717.639",
    "APOAPSIS": "20609.203",
    "PERIAPSIS": "19738.583",
    "OBJECT_TYPE": "PAYLOAD",
    "RCS_SIZE": "LARGE",
    "COUNTRY_CODE": "US",
    "LAUNCH_DATE": "2004-11-06",
    "SITE": "AFETR",
    "DECAY_DATE": null,
    "FILE": "4674434",
    "GP_ID": "283528584",
    "TLE_LINE0": "0 NAVSTAR 56 (USA 180)",
    "TLE_LINE1": "1 28474U 04045A   25078.85436109 -.00000087  00000-0  00000-0 0  9992",
    "TLE_LINE2": "2 28474  55.3541 343.1645 0163946 301.3587 239.4145  2.00657878149311"
  },
  {
    "CCSDS_OMM_VERS": "2.0",
    "COMMENT": "GENERATED VIA SPACE-TRACK.ORG API",
    "CREATION_DATE": "2025-03-20T03:31:02",
    "ORIGINATOR": "18 SPCS",
    "OBJECT_NAME": "NAVSTAR 51 (USA 166)",
    "OBJECT_ID": "2003-005A",
    "CENTER_NAME": "EARTH",
    "REF_FRAME": "TEME",
    "TIME_SYSTEM": "UTC",
    "MEAN_ELEMENT_THEORY": "SGP4",
    "EPOCH": "2025-03-19T21:43:36.300864",
    "MEAN_MOTION": "2.00559244",
    "ECCENTRICITY": "0.01434640",
    "INCLINATION": "55.0041",
    "RA_OF_ASC_NODE": "233.0231",
    "ARG_OF_PERICENTER": "49.8772",
    "MEAN_ANOMALY": "314.8749",
    "EPHEMERIS_TYPE": "0",
    "CLASSIFICATION_TYPE": "U",
    "NORAD_CAT_ID": "27663",
    "ELEMENT_SET_NO": "999",
    "REV_AT_EPOCH": "16220",
    "BSTAR": "0.00000000000000",
    "MEAN_MOTION_DOT": "0.00000043",
    "MEAN_MOTION_DDOT": "0.0000000000000",
    "SEMIMAJOR_AXIS": "26560.733",
    "PERIOD": "717.992",
    "APOAPSIS": "20563.649",
    "PERIAPSIS": "19801.547",
    "OBJECT_TYPE": "PAYLOAD",
    "RCS_SIZE": "LARGE",
    "COUNTRY_CODE": "US",
    "LAUNCH_DATE": "2003-01-29",
    "SITE": "AFETR",
    "DECAY_DATE": null,
    "FILE": "4674434",
    "GP_ID": "283528399",
    "TLE_LINE0": "0 NAVSTAR 51 (USA 166)",
    "TLE_LINE1": "1 27663U 03005A   25078.90528126  .00000043  00000-0  00000-0 0  9994",
    "TLE_LINE2": "2 27663  55.0041 233.0231 0143464  49.8772 314.8749  2.00559244162202"
  },
  {
    "CCSDS_OMM_VERS": "2.0",
    "COMMENT": "GENERATED VIA SPACE-TRACK.ORG API",
    "CREATION_DATE": "2025-03-20T19:29:49",
    "ORIGINATOR": "18 SPCS",
    "OBJECT_NAME": "NAVSTAR 62 (USA 201)",
    "OBJECT_ID": "2008-012A",
    "CENTER_NAME": "EARTH",
    "REF_FRAME": "TEME",
    "TIME_SYSTEM": "UTC",
    "MEAN_ELEMENT_THEORY": "SGP4",
    "EPOCH": "2025-03-19T22:24:19.377504",
    "MEAN_MOTION": "2.00555916",
    "ECCENTRICITY": "0.01956320",
    "INCLINATION": "54.4566",
    "RA_OF_ASC_NODE": "168.0575",
    "ARG_OF_PERICENTER": "241.9606",
    "MEAN_ANOMALY": "116.0911",
    "EPHEMERIS_TYPE": "0",
    "CLASSIFICATION_TYPE": "U",
    "NORAD_CAT_ID": "32711",
    "ELEMENT_SET_NO": "999",
    "REV_AT_EPOCH": "12464",
    "BSTAR": "0.00000000000000",
    "MEAN_MOTION_DOT": "0.00000008",
    "MEAN_MOTION_DDOT": "0.0000000000000",
    "SEMIMAJOR_AXIS": "26561.027",
    "PERIOD": "718.004",
    "APOAPSIS": "20702.510",
    "PERIAPSIS": "19663.273",
    "OBJECT_TYPE": "PAYLOAD",
    "RCS_SIZE": "LARGE",
    "COUNTRY_CODE": "US",
    "LAUNCH_DATE": "2008-03-15",
    "SITE": "AFETR",
    "DECAY_DATE": null,
    "FILE": "4675094",
    "GP_ID": "283576788",
    "TLE_LINE0": "0 NAVSTAR 62 (USA 201)",
    "TLE_LINE1": "1 32711U 08012A   25078.93355761  .00000008  00000-0  00000-0 0  9994",
    "TLE_LINE2": "2 32711  54.4566 168.0575 0195632 241.9606 116.0911  2.00555916124641"
  }
]
